TISAT 1                 
1 36799U 10035E   26068.75703561  .00024554  00000+0  91005-3 0  9996
2 36799  98.0645   6.8512 0001343 159.3030 200.8262 15.27628633852505
STARLINK-36183          
1 67173U 25303L   26068.04139274  .00045748  00000+0  16613-2 0  9995
2 67173  43.0008 314.5763 0001771 267.5782  92.4867 15.27587617 12630
